{"type": "FeatureCollection", "name": "nagpur_water_bodies", "description": "Nagpur-district water bodies. Outlines from OpenStreetMap (ODbL, (c) OpenStreetMap contributors), fetched 2026-09-24 via Overpass, clipped to the district boundary and simplified to ~10 m.", "features": [{"type": "Feature", "properties": {"id": "wb_rajiv_sagar_dam", "name": "Rajiv Sagar Dam", "district": "Nagpur", "kind": "reservoir", "tier": 1, "drinking_water": true, "urban": false, "source": "osm", "osm_id": "way/538529979", "osm_name": "Rajiv Sagar Dam"}, "geometry": {"type": "MultiPolygon", "coordinates": [[[[79.5061254, 21.558597299999995], [79.5053744, 21.557639299999998], [79.5054602, 21.556881000000004], [79.50614690000002, 21.5549452], [79.5060611, 21.554326499999995], [79.5057392, 21.553967299999993], [79.5048809, 21.554346399999996], [79.504323, 21.555224599999992], [79.5042586, 21.5556836], [79.5035505, 21.555603699999992], [79.5031214, 21.556322200000004], [79.5025205, 21.555783400000003], [79.5019412, 21.555523899999997], [79.5007825, 21.5558432], [79.5006966, 21.556421999999998], [79.5001817, 21.5573001], [79.4999242, 21.5583578], [79.499495, 21.557878800000005], [79.4976496, 21.558138200000002], [79.4967699, 21.558736900000003], [79.495461, 21.5603933], [79.4949031, 21.560572899999993], [79.4958257, 21.557798999999996], [79.4976926, 21.557160399999997], [79.4975853, 21.556621499999995], [79.4977784, 21.5561825], [79.4977784, 21.5555638], [79.4973063, 21.5539872], [79.4955683, 21.5525902], [79.496448, 21.5520514], [79.4971561, 21.552310799999997], [79.4988727, 21.553847499999993], [79.500246, 21.5543065], [79.50138330000001, 21.553667899999997], [79.5025205, 21.552929499999998], [79.5030355, 21.5521711], [79.5025849, 21.5504747], [79.5014477, 21.550215299999998], [79.5026493, 21.547461100000003], [79.5037651, 21.5485188], [79.5042372, 21.546962099999995], [79.5040011, 21.546143800000003], [79.5047736, 21.546024099999997], [79.5057821, 21.5463634], [79.5065975, 21.5446869], [79.50792790000001, 21.5452457], [79.5093226, 21.545145899999994], [79.5100951, 21.544347599999995], [79.50874330000002, 21.5436291], [79.5082283, 21.542830699999996], [79.5074343, 21.542052299999995], [79.5053744, 21.5420124], [79.5043874, 21.540754999999997], [79.5076275, 21.540395699999998], [79.5097947, 21.540435699999996], [79.51247690000001, 21.5414137], [79.5136785, 21.541214099999998], [79.5151162, 21.5412939], [79.51447250000001, 21.539637299999992], [79.5125198, 21.5370426], [79.5149231, 21.537980699999995], [79.5175409, 21.537361899999997], [79.5163393, 21.535785100000002], [79.51279880000001, 21.5350067], [79.51475140000001, 21.5327712], [79.5149231, 21.529377899999997], [79.5176267, 21.5265834], [79.5213389, 21.525385799999995], [79.5221543, 21.5248668], [79.5213175, 21.524467600000005], [79.521575, 21.523409600000004], [79.5206737, 21.522391599999995], [79.51674700000001, 21.522970500000003], [79.51496600000002, 21.5235693], [79.5127773, 21.5237689], [79.5113611, 21.5218726], [79.5109105, 21.520555099999996], [79.5124984, 21.519536999999996], [79.5149874, 21.520495199999996], [79.5153308, 21.519397299999998], [79.5171547, 21.519457199999998], [79.5160818, 21.516622600000005], [79.5185709, 21.5178003], [79.5219826, 21.517900199999996], [79.5224118, 21.516402999999993], [79.5184636, 21.515704300000003], [79.516232, 21.515085499999998], [79.5148802, 21.513209000000003], [79.5164251, 21.5118915], [79.5122623, 21.507938699999997], [79.5121639, 21.506671], [79.5132279, 21.5065213], [79.5158028, 21.5078389], [79.51902150000001, 21.51073359999999], [79.5199656, 21.510953199999996], [79.520781, 21.5092962], [79.5209098, 21.507499500000005], [79.5204162, 21.506381500000003], [79.5185923, 21.504704599999997], [79.5157814, 21.503646499999995], [79.5146227, 21.5019296], [79.5149231, 21.5006718], [79.5173049, 21.5013506], [79.5207596, 21.5028679], [79.51934340000001, 21.4995738], [79.52168220000001, 21.501370599999998], [79.5235491, 21.503287099999998], [79.5239782, 21.505662899999997], [79.5250296, 21.508896999999997], [79.5248365, 21.510773499999996], [79.5259738, 21.511052999999997], [79.5266604, 21.510414199999996], [79.5262527, 21.509096600000003], [79.5279693, 21.5091565], [79.5278621, 21.5062418], [79.52842, 21.5045049], [79.5299434, 21.5074396], [79.5313382, 21.507779000000006], [79.5333338, 21.510733599999995], [79.5308661, 21.511412299999996], [79.5298791, 21.5129095], [79.530437, 21.5141672], [79.5326257, 21.513847799999994], [79.533205, 21.514446700000004], [79.5326471, 21.5159838], [79.53341960000002, 21.517301300000007], [79.5339131, 21.521393499999995], [79.5349002, 21.519956199999996], [79.5346212, 21.519277500000005], [79.5390844, 21.515364899999994], [79.5407152, 21.5151853], [79.5427966, 21.515424800000005], [79.5435691, 21.516582599999992], [79.544363, 21.5186986], [79.53964230000001, 21.521014299999997], [79.540565, 21.524307900000004], [79.5434188, 21.529856999999996], [79.5426464, 21.532372], [79.5427751, 21.5385595], [79.545865, 21.541872700000003], [79.5477962, 21.546702699999997], [79.54741, 21.5492174], [79.545865, 21.5535681], [79.5462513, 21.555883199999997], [79.5491695, 21.561590700000004], [79.55122940000001, 21.5710097], [79.5515298, 21.575000599999996], [79.5529031, 21.5762777], [79.5541477, 21.578512499999995], [79.5531606, 21.579989100000002], [79.5517444, 21.5794304], [79.548912, 21.579430399999996], [79.5470237, 21.5801487], [79.54668040000001, 21.582064299999995], [79.5477533, 21.582742699999997], [79.5460796, 21.5858154], [79.5480537, 21.587850599999996], [79.5480963, 21.589665799999995], [79.544363, 21.5867333], [79.5427322, 21.587890500000004], [79.5405864, 21.5900853], [79.5389127, 21.590763600000002], [79.5392131, 21.58872849999999], [79.5387411, 21.586054899999993], [79.5379686, 21.5854563], [79.5395565, 21.583820099999997], [79.537239, 21.5831816], [79.5401144, 21.5770759], [79.5378398, 21.5776346], [79.5365095, 21.581625300000002], [79.5344066, 21.5822638], [79.5340633, 21.583460999999996], [79.5309305, 21.5844187], [79.5307159, 21.588209799999998], [79.526596, 21.585536099999995], [79.5239353, 21.587970300000002], [79.5207595, 21.591282400000004], [79.5199441, 21.587690999999996], [79.515481, 21.587690999999996], [79.5145368, 21.590963199999997], [79.5137041, 21.5955932], [79.5125627, 21.5988241], [79.5090007, 21.6013778], [79.5057154, 21.601061499999997], [79.5067691, 21.5872122], [79.5030784, 21.5856958], [79.5067691, 21.5785126], [79.5134639, 21.57436209999999], [79.52178950000001, 21.5746016], [79.5303725, 21.568295899999992], [79.5343207, 21.563985499999998], [79.5291709, 21.562069699999995], [79.5237636, 21.562708299999997], [79.5224761, 21.553927399999996], [79.5191939, 21.554247299999997], [79.5121764, 21.558716999999994], [79.5061254, 21.558597299999995]]]]}}, {"type": "Feature", "properties": {"id": "wb_ramsagar_lake_khindshi", "name": "Ramsagar Lake (Khindshi)", "district": "Nagpur", "kind": "lake", "tier": 2, "drinking_water": false, "urban": false, "source": "osm", "osm_id": "way/320424072", "osm_name": "Ramsagar Lake (Khindshi)"}, "geometry": {"type": "MultiPolygon", "coordinates": [[[[79.39556120000002, 21.3786873], [79.39728, 21.383488599999996], [79.3982763, 21.3871533], [79.3982763, 21.391815199999996], [79.3975041, 21.391119399999997], [79.3967818, 21.3918152], [79.3954865, 21.394830300000002], [79.3944652, 21.395595599999996], [79.3934938, 21.3965697], [79.3928461, 21.39951509999999], [79.3922732, 21.39990939999999], [79.3916007, 21.398773], [79.3905545, 21.395688399999997], [79.3908783, 21.392905299999995], [79.3901808, 21.391212200000002], [79.3888856, 21.3907483], [79.3878643, 21.391652800000003], [79.3873661, 21.3935778], [79.387117, 21.395270900000003], [79.386021, 21.3962914], [79.3844517, 21.396337799999998], [79.3834553, 21.396013100000005], [79.3820355, 21.396175399999997], [79.381637, 21.396871200000003], [79.3823095, 21.398216399999995], [79.3826333, 21.399932599999996], [79.382459, 21.401347300000005], [79.3826583, 21.402901099999998], [79.38360480000001, 21.4052434], [79.383281, 21.406379799999996], [79.3815622, 21.4061015], [79.3801922, 21.4056145], [79.37849840000001, 21.4057768], [79.3778259, 21.4066812], [79.378349, 21.407469699999996], [79.3793702, 21.408003099999995], [79.38029190000002, 21.4088843], [79.3782244, 21.410252600000003], [79.3759124, 21.410450299999997], [79.3738902, 21.410113399999997], [79.3730931, 21.409023500000004], [79.3732924, 21.4081191], [79.3711502, 21.405939099999994], [79.3699047, 21.4072146], [79.3694315, 21.4090699], [79.3690578, 21.412339700000004], [79.3675384, 21.414194900000002], [79.3650225, 21.4151456], [79.3637771, 21.4143804], [79.3637771, 21.4128962], [79.3643251, 21.4112498], [79.3624071, 21.410252600000003], [79.3598663, 21.4099743], [79.35804800000001, 21.4095569], [79.3565783, 21.4085133], [79.3562296, 21.407469699999996], [79.357226, 21.4064029], [79.3584465, 21.4057536], [79.3580978, 21.4044781], [79.3563043, 21.405197], [79.3548347, 21.406426099999994], [79.3501766, 21.408188599999995], [79.3478601, 21.408049499999997], [79.3474615, 21.406750799999998], [79.3485326, 21.405892699999995], [79.3504008, 21.405475299999996], [79.351995, 21.404223], [79.3540376, 21.403202599999997], [79.3553329, 21.401996599999993], [79.3542369, 21.4019039], [79.3528419, 21.402970699999997], [79.3515965, 21.4032026], [79.3514719, 21.402321300000004], [79.3522939, 21.40097619999999], [79.3542369, 21.3993991], [79.35617980000002, 21.398355499999997], [79.3575498, 21.3979149], [79.359692, 21.396592899999995], [79.36298, 21.394876599999996], [79.3659442, 21.391676000000004], [79.3707517, 21.3868518], [79.3754097, 21.383720499999995], [79.3765306, 21.382467999999996], [79.3769566, 21.381254399999996], [79.3769373, 21.3808163], [79.3784898, 21.379672700000004], [79.3833308, 21.3796615], [79.3847755, 21.379081599999996], [79.386021, 21.3789424], [79.38876100000002, 21.379359899999997], [79.3912768, 21.3789424], [79.3939919, 21.379151199999995], [79.3949136, 21.378733700000005], [79.39556120000002, 21.3786873]]]]}}, {"type": "Feature", "properties": {"id": "wb_venna_dam", "name": "Venna Dam", "district": "Nagpur", "kind": "reservoir", "tier": 2, "drinking_water": false, "urban": false, "source": "osm", "osm_id": "way/837725511", "osm_name": "Venna Dam"}, "geometry": {"type": "MultiPolygon", "coordinates": [[[[78.860791, 21.138855399999997], [78.8561132, 21.139255699999996], [78.8528517, 21.1391356], [78.8507917, 21.1408968], [78.8468006, 21.1422778], [78.8482168, 21.1452397], [78.8504913, 21.146820700000003], [78.8518646, 21.145219700000002], [78.8551262, 21.1465005], [78.8538602, 21.148221599999992], [78.8535383, 21.1493623], [78.8558128, 21.1502829], [78.8580659, 21.1491222], [78.8615849, 21.152204], [78.8562205, 21.155045700000002], [78.8552764, 21.156506500000003], [78.85798, 21.159588299999996], [78.8545683, 21.161129099999993], [78.8534954, 21.163150199999993], [78.8557699, 21.162449799999994], [78.8575509, 21.163530399999996], [78.8573792, 21.165631500000003], [78.858774, 21.166451899999995], [78.8604906, 21.16819269999999], [78.861306, 21.168813], [78.8621857, 21.1672723], [78.8632157, 21.1682327], [78.8634947, 21.1668721], [78.8664558, 21.167232299999995], [78.8667777, 21.1631502], [78.8702538, 21.1631702], [78.8740518, 21.164210699999998], [78.8755968, 21.1619295], [78.8794377, 21.162669899999997], [78.8762834, 21.157687199999998], [78.8726142, 21.1550657], [78.8720348, 21.1523041], [78.8739231, 21.150322899999992], [78.8730219, 21.148741899999994], [78.8745883, 21.147741299999996], [78.8771632, 21.1482416], [78.876262, 21.1457801], [78.8750603, 21.14576], [78.8746741, 21.144299099999998], [78.8629153, 21.142217699999996], [78.860791, 21.138855399999997]]]]}}, {"type": "Feature", "properties": {"id": "wb_gorewada_lake", "name": "Gorewada Lake", "district": "Nagpur", "kind": "lake", "tier": 1, "drinking_water": true, "urban": true, "source": "osm", "osm_id": "way/44430029", "osm_name": "Gorewada lake"}, "geometry": {"type": "MultiPolygon", "coordinates": [[[[79.0360311, 21.2005635], [79.0362972, 21.2010756], [79.0359968, 21.201347700000003], [79.0362543, 21.201611799999995], [79.036177, 21.202348], [79.0369066, 21.2031002], [79.03718120000002, 21.2035963], [79.0383485, 21.2042684], [79.0381254, 21.2044765], [79.0379623, 21.2052447], [79.0381511, 21.2055808], [79.038606, 21.2057568], [79.0388979, 21.2055808], [79.0390953, 21.2058528], [79.0393699, 21.20577279999999], [79.03928410000002, 21.2052767], [79.0395931, 21.2049486], [79.0395158, 21.204668500000004], [79.039842, 21.204548499999998], [79.0396703, 21.204100399999998], [79.0401252, 21.204108400000003], [79.0399793, 21.203772299999997], [79.0402025, 21.2035003], [79.0401081, 21.203188199999996], [79.0403827, 21.2030521], [79.0408805, 21.2031562], [79.0407518, 21.202820099999997], [79.0409235, 21.202531999999994], [79.0418161, 21.20198789999999], [79.0427173, 21.201803799999997], [79.0438589, 21.201955899999998], [79.0449575, 21.202323999999997], [79.0451635, 21.202163899999995], [79.045318, 21.201619799999996], [79.045009, 21.2009476], [79.0448803, 21.200075399999992], [79.0450262, 21.1991151], [79.0452322, 21.198683], [79.0460819, 21.198202800000004], [79.04155, 21.1934894], [79.0402711, 21.194473699999996], [79.0399364, 21.1945617], [79.0391983, 21.1943697], [79.0379966, 21.193569399999998], [79.0375074, 21.193777499999996], [79.0363058, 21.1936655], [79.0359453, 21.193457399999996], [79.0356878, 21.1930333], [79.0359796, 21.192352999999997], [79.0364774, 21.1917048], [79.0379966, 21.1907525], [79.0379366, 21.190584399999995], [79.0372757, 21.1906805], [79.0362886, 21.190544399999997], [79.035868, 21.189424], [79.0354646, 21.1890079], [79.0347951, 21.1888719], [79.0335163, 21.1890319], [79.0316881, 21.1884877], [79.031525, 21.188575799999995], [79.0332416, 21.189344000000002], [79.0346063, 21.189568099999995], [79.0348123, 21.1897682], [79.0347437, 21.190112299999996], [79.034366, 21.190472399999997], [79.0333961, 21.190728499999995], [79.0327695, 21.1913687], [79.0323404, 21.191528799999993], [79.0337995, 21.1924971], [79.0340055, 21.192929200000002], [79.0339798, 21.1932973], [79.0336193, 21.1936334], [79.0329326, 21.193737499999997], [79.0309328, 21.1946098], [79.0318512, 21.195177899999997], [79.0324434, 21.1949779], [79.032555, 21.1957781], [79.0324091, 21.1961462], [79.0326065, 21.1973386], [79.0324091, 21.197666699999996], [79.0319027, 21.197962800000003], [79.0309328, 21.197930799999995], [79.0296024, 21.1984429], [79.0289844, 21.199059099999996], [79.0284351, 21.1992511], [79.0280403, 21.199227099999998], [79.0282291, 21.199467199999994], [79.0280403, 21.199867299999998], [79.0281347, 21.2002354], [79.0275167, 21.201259699999998], [79.0275167, 21.201699800000004], [79.0276283, 21.202003899999994], [79.028066, 21.2019799], [79.0288557, 21.2011717], [79.0295595, 21.200971599999995], [79.0300745, 21.2010116], [79.0304264, 21.2015077], [79.0310358, 21.201899799999996], [79.031113, 21.203412199999992], [79.0317739, 21.203012100000002], [79.032143, 21.203076100000004], [79.0332674, 21.202564], [79.0334734, 21.2020119], [79.0342029, 21.20176379999999], [79.0345977, 21.201811800000005], [79.0351041, 21.201571799999996], [79.0360311, 21.2005635]]]]}}, {"type": "Feature", "properties": {"id": "wb_ambazari_lake", "name": "Ambazari Lake", "district": "Nagpur", "kind": "lake", "tier": 2, "drinking_water": false, "urban": true, "source": "osm", "osm_id": "way/130775582", "osm_name": "Ambazari Lake"}, "geometry": {"type": "MultiPolygon", "coordinates": [[[[79.02512270000001, 21.126656399999998], [79.0231996, 21.1268686], [79.0231057, 21.127296899999997], [79.0246936, 21.127397], [79.0255948, 21.127146799999995], [79.0267321, 21.1272669], [79.0271263, 21.1270687], [79.0275367, 21.127156800000005], [79.0294143, 21.1265263], [79.0308272, 21.1267885], [79.0314173, 21.127058699999996], [79.0316212, 21.1279794], [79.0325471, 21.127597099999996], [79.0337026, 21.127679199999992], [79.0339813, 21.128241199999998], [79.0337632, 21.129243600000002], [79.03294480000001, 21.129846899999997], [79.0327428, 21.129798699999995], [79.0323686, 21.130246699999994], [79.0324159, 21.130439199999998], [79.0322278, 21.1307053], [79.031881, 21.130957499999997], [79.03151140000001, 21.131725400000008], [79.0311948, 21.1319994], [79.0302816, 21.1323708], [79.0308595, 21.132282399999998], [79.0308998, 21.132505199999997], [79.0306358, 21.1327294], [79.0319595, 21.1319818], [79.0324008, 21.131840399999998], [79.0325484, 21.132100499999996], [79.0328486, 21.131006400000004], [79.0340996, 21.129961], [79.0347433, 21.129881], [79.0349592, 21.130007999999997], [79.03518800000002, 21.130775299999996], [79.03554000000001, 21.130999700000004], [79.0356597, 21.130950399999996], [79.0355935, 21.1304467], [79.0357249, 21.130454500000006], [79.0357669, 21.130139900000003], [79.036389, 21.1296914], [79.0367902, 21.129675900000002], [79.0373073, 21.129891900000004], [79.03762520000001, 21.130629700000004], [79.0377045, 21.131362099999997], [79.0386906, 21.1313408], [79.0397254, 21.131890199999997], [79.03956, 21.132666399999998], [79.0392053, 21.133394300000003], [79.0386993, 21.1337226], [79.0392272, 21.1340576], [79.0392748, 21.134417499999998], [79.0391032, 21.134683], [79.03867, 21.134854500000003], [79.0387439, 21.135180499999997], [79.0391737, 21.1352004], [79.0394777, 21.135391499999997], [79.0394978, 21.1357077], [79.0392109, 21.1360329], [79.0396291, 21.136254299999997], [79.0383142, 21.137713], [79.0377437, 21.1379042], [79.0378537, 21.138059300000002], [79.0374833, 21.1389681], [79.0378997, 21.138614399999998], [79.0388968, 21.1382718], [79.0399678, 21.137650899999997], [79.0404156, 21.137942899999995], [79.0405493, 21.1386297], [79.0408752, 21.139253699999998], [79.0409852, 21.1391801], [79.04100360000001, 21.138332100000003], [79.0415454, 21.137461499999993], [79.0419423, 21.137534], [79.0424462, 21.137899099999995], [79.0425565, 21.1376366], [79.0430287, 21.137326400000003], [79.0424251, 21.136763400000003], [79.0423796, 21.136460799999995], [79.0426612, 21.136090499999998], [79.042181, 21.1357927], [79.0424359, 21.135064799999995], [79.0428402, 21.1346589], [79.0426612, 21.134424299999992], [79.0428758, 21.134179100000004], [79.0429348, 21.133646199999994], [79.043447, 21.1328582], [79.0437475, 21.132633], [79.0446508, 21.132692900000002], [79.04501210000001, 21.133413], [79.0459392, 21.1328468], [79.0457832, 21.1309881], [79.0451838, 21.128049599999997], [79.0434038, 21.125010300000003], [79.0434931, 21.124911300000004], [79.0431608, 21.1240769], [79.0410519, 21.125077299999994], [79.0401506, 21.1251574], [79.0399361, 21.125437599999998], [79.0400004, 21.1251374], [79.0393736, 21.124841399999998], [79.0393353, 21.124637], [79.0391342, 21.1247044], [79.0382838, 21.124177], [79.037565, 21.1239668], [79.0363526, 21.1237467], [79.0347218, 21.123966800000005], [79.0329011, 21.123974300000004], [79.0291434, 21.1231962], [79.0286606, 21.1232863], [79.0280839, 21.123684099999995], [79.0272336, 21.12358649999999], [79.0268903, 21.123926800000003], [79.0250128, 21.124006899999998], [79.0249162, 21.1243171], [79.0251335, 21.124624800000003], [79.0253668, 21.124767500000004], [79.0265282, 21.124885], [79.0268474, 21.1252178], [79.0268045, 21.125468], [79.0264102, 21.1259159], [79.0254634, 21.126278099999997], [79.02512270000001, 21.126656399999998]]]]}}, {"type": "Feature", "properties": {"id": "wb_tarna_tank", "name": "Tarna Tank", "district": "Nagpur", "kind": "lake", "tier": 2, "drinking_water": false, "urban": false, "source": "osm", "osm_id": "way/119685718", "osm_name": "Tarna Tank"}, "geometry": {"type": "MultiPolygon", "coordinates": [[[[79.41913600000001, 20.893616899999994], [79.420166, 20.893616899999994], [79.4215393, 20.8942584], [79.4225693, 20.8942584], [79.421711, 20.8921735], [79.4242859, 20.889767899999995], [79.4263458, 20.889767899999992], [79.4273758, 20.888164100000004], [79.4287491, 20.8884849], [79.4292641, 20.888003700000002], [79.4292641, 20.88736219999999], [79.4273758, 20.885918799999995], [79.4263458, 20.886881100000004], [79.4256592, 20.8868811], [79.4244576, 20.885758399999997], [79.4232559, 20.8839942], [79.4223976, 20.8844753], [79.4223976, 20.885758399999993], [79.4218826, 20.886239500000002], [79.4208527, 20.8862395], [79.420166, 20.8868811], [79.41913600000001, 20.8868811], [79.4186211, 20.885758399999993], [79.4193077, 20.8851169], [79.41913600000001, 20.884314899999993], [79.4181061, 20.8846357], [79.4167328, 20.884635700000004], [79.4160461, 20.8839942], [79.4153595, 20.8839942], [79.4155312, 20.8847961], [79.4150162, 20.885277199999997], [79.4127846, 20.885437599999992], [79.4134712, 20.8860792], [79.4151878, 20.889607499999997], [79.4151878, 20.890569799999998], [79.4145012, 20.8912113], [79.4145012, 20.8924943], [79.4150162, 20.8929754], [79.4174194, 20.8929754], [79.4177628, 20.8932962], [79.41913600000001, 20.893616899999994]]]]}}, {"type": "Feature", "properties": {"id": "wb_koradi_lake", "name": "Koradi Lake", "district": "Nagpur", "kind": "lake", "tier": 3, "drinking_water": false, "urban": false, "source": "osm", "osm_id": "relation/1943942", "osm_name": "Koradi Lake"}, "geometry": {"type": "MultiPolygon", "coordinates": [[[[79.0868005, 21.260068799999992], [79.0861516, 21.260319099999997], [79.0854526, 21.2597802], [79.0845946, 21.260011099999996], [79.0844103, 21.260253999999996], [79.0841625, 21.260242099999996], [79.084512, 21.2611897], [79.0844358, 21.261314099999996], [79.084315, 21.2610713], [79.0842133, 21.261124599999995], [79.0839845, 21.2619952], [79.0841116, 21.262018899999998], [79.0838702, 21.262190599999997], [79.08375580000002, 21.2625282], [79.0839401, 21.2623802], [79.08453740000002, 21.2624927], [79.084601, 21.262160999999995], [79.0851412, 21.261758299999997], [79.0857258, 21.26177009999999], [79.084226, 21.262788799999996], [79.0834698, 21.263126399999997], [79.083527, 21.263298200000005], [79.0837303, 21.2632567], [79.0835778, 21.263458099999998], [79.083813, 21.263819299999998], [79.0843913, 21.2634758], [79.08453740000002, 21.263481699999996], [79.0845311, 21.2636239], [79.0843087, 21.2638489], [79.0838702, 21.263979199999994], [79.0837939, 21.264322699999997], [79.0828978, 21.265027499999995], [79.082955, 21.2651104], [79.0846582, 21.2643642], [79.0854907, 21.2635647], [79.08559870000002, 21.263570599999998], [79.0855479, 21.263754199999997], [79.0860944, 21.2634284], [79.0863804, 21.2634225], [79.0863995, 21.2627], [79.0866537, 21.2623683], [79.0866219, 21.262149200000003], [79.0870131, 21.262047499999998], [79.0866326, 21.2606329], [79.0869995, 21.260535299999994], [79.0876882, 21.262831299999995], [79.08840000000001, 21.262381200000004], [79.0885208, 21.262162], [79.0886161, 21.261706], [79.0889338, 21.2613151], [79.0890864, 21.2607406], [79.0889338, 21.260385299999996], [79.089061, 21.260255], [79.0895185, 21.260260899999995], [79.0897028, 21.260515600000005], [79.090154, 21.2606459], [79.0903638, 21.260207600000005], [79.0906624, 21.260219399999993], [79.0911391, 21.259881799999995], [79.0912662, 21.259603499999997], [79.0918, 21.259407999999997], [79.09186360000001, 21.2600891], [79.0922385, 21.2601187], [79.0924292, 21.260308299999995], [79.0927406, 21.2611315], [79.092372, 21.261321], [79.0920479, 21.2619488], [79.0919843, 21.262085000000003], [79.0922067, 21.2622509], [79.0934333, 21.2616527], [79.0935922, 21.261794799999997], [79.0938908, 21.261706], [79.0936938, 21.261557899999996], [79.0937193, 21.261267699999998], [79.0939322, 21.261143400000005], [79.0939904, 21.2607875], [79.0942955, 21.260846700000002], [79.0943845, 21.260538700000005], [79.0949469, 21.260583199999996], [79.0954299, 21.260340299999992], [79.0957063, 21.2603551], [79.0955729, 21.260692699999996], [79.0957289, 21.260750300000005], [79.0958278, 21.260499099999997], [79.0965917, 21.260306400000005], [79.0968164, 21.260641500000002], [79.0974815, 21.2607503], [79.0983173, 21.2604656], [79.098551, 21.260155700000002], [79.0990992, 21.260272900000004], [79.100699, 21.259996499999996], [79.1012832, 21.259326400000003], [79.1022358, 21.258941199999995], [79.1021729, 21.258731800000003], [79.1018853, 21.258698300000002], [79.10182240000002, 21.2581454], [79.102092, 21.258128699999997], [79.10243360000001, 21.2583716], [79.10255940000002, 21.257885799999997], [79.1022448, 21.2568388], [79.10186740000002, 21.256369700000004], [79.1017775, 21.255322699999997], [79.10115730000001, 21.255372999999995], [79.10115730000001, 21.2561436], [79.10069, 21.2564032], [79.099944, 21.256285999999996], [79.0984341, 21.2569309], [79.0979398, 21.256771799999992], [79.0974365, 21.2563027], [79.0970231, 21.2569979], [79.0961962, 21.256880699999996], [79.0958098, 21.2569728], [79.0952166, 21.25610169999999], [79.0958457, 21.2562106], [79.0962142, 21.256051399999997], [79.0959266, 21.255356199999998], [79.0954503, 21.2552892], [79.0954503, 21.255448399999995], [79.0951986, 21.255465099999995], [79.0946055, 21.2552096], [79.0945336, 21.255377199999998], [79.0947043, 21.255540500000002], [79.0944617, 21.255599099999994], [79.0943628, 21.255448399999995], [79.0946504, 21.2546778], [79.0943628, 21.254786600000003], [79.0938056, 21.254518599999994], [79.0928888, 21.2547448], [79.0924664, 21.254451599999996], [79.09208, 21.2546778], [79.0915138, 21.2544684], [79.0914778, 21.2542589], [79.0917025, 21.254183599999994], [79.0919631, 21.254326], [79.092089, 21.254116600000003], [79.09103380000002, 21.253895100000005], [79.0912237, 21.254217099999995], [79.0910902, 21.254833099999995], [79.0911792, 21.255312799999995], [79.0915796, 21.255733299999992], [79.09086780000001, 21.2558992], [79.0904293, 21.2556504], [79.0900798, 21.255857699999996], [79.089654, 21.255703699999994], [79.0891392, 21.255828099999995], [79.0887452, 21.2552417], [79.0885164, 21.2554372], [79.0883512, 21.255976199999996], [79.0874742, 21.256965299999997], [79.0873788, 21.257480599999997], [79.0876267, 21.2581439], [79.0869403, 21.258357100000005], [79.086845, 21.2586236], [79.0869785, 21.2591804], [79.0866925, 21.259440999999995], [79.0868005, 21.260068799999992]], [[79.0941383, 21.255128600000003], [79.0939715, 21.254933199999993], [79.0941224, 21.2548858], [79.0941383, 21.255128600000003]], [[79.0936998, 21.2553922], [79.093328, 21.2549598], [79.093703, 21.254814700000004], [79.0939477, 21.2550664], [79.0936998, 21.2553922]], [[79.0882532, 21.258762199999996], [79.0878757, 21.2585528], [79.0880644, 21.2582931], [79.0882082, 21.258184200000002], [79.088334, 21.258268], [79.0888823, 21.257773800000002], [79.0891339, 21.2579162], [79.0888553, 21.258519299999996], [79.0882532, 21.258762199999996]], [[79.0851427, 21.2606548], [79.0848101, 21.2607511], [79.0849405, 21.2603072], [79.0853359, 21.260294599999998], [79.0856729, 21.2606715], [79.0856505, 21.260859999999997], [79.085291, 21.2608767], [79.0851427, 21.2606548]], [[79.08599650000001, 21.261580300000002], [79.0854033, 21.2613625], [79.0856325, 21.260985600000005], [79.0860549, 21.261031699999997], [79.08599650000001, 21.261580300000002]], [[79.0865357, 21.261664], [79.0862032, 21.2616054], [79.0863335, 21.2610275], [79.0865582, 21.261274599999997], [79.0865357, 21.261664]], [[79.0946283, 21.256348599999995], [79.0943341, 21.256000699999998], [79.0948664, 21.255921400000002], [79.0947631, 21.2562188], [79.09493380000002, 21.2562983], [79.0946283, 21.256348599999995]], [[79.09727860000001, 21.2573096], [79.0971388, 21.257155599999994], [79.0972881, 21.256983800000004], [79.0974629, 21.257262199999996], [79.09727860000001, 21.2573096]], [[79.0960393, 21.257339200000004], [79.0958995, 21.2571733], [79.0963444, 21.257087499999994], [79.0963031, 21.257274], [79.0960393, 21.257339200000004]], [[79.09569610000001, 21.2576791], [79.0954164, 21.2575696], [79.095515, 21.257258599999997], [79.095731, 21.257344499999995], [79.09569610000001, 21.2576791]], [[79.0952671, 21.257688], [79.0949907, 21.257649499999996], [79.095283, 21.2573415], [79.095337, 21.257377100000003], [79.0952671, 21.257688]]]]}}, {"type": "Feature", "properties": {"id": "wb_suraburdi_dam", "name": "Suraburdi Dam", "district": "Nagpur", "kind": "reservoir", "tier": 3, "drinking_water": false, "urban": false, "source": "osm", "osm_id": "way/44428508", "osm_name": "Suraburdi Dam"}, "geometry": {"type": "MultiPolygon", "coordinates": [[[[78.9351715, 21.159834800000002], [78.9346989, 21.1606622], [78.935451, 21.1612935], [78.9354263, 21.161833800000004], [78.9359628, 21.1630315], [78.9366344, 21.162162], [78.937394, 21.16255419999999], [78.9373092, 21.162962399999998], [78.937453, 21.1629054], [78.9376568, 21.1642751], [78.93794870000002, 21.164462199999996], [78.93851730000002, 21.164290099999995], [78.9387866, 21.1638039], [78.9387061, 21.1631275], [78.9391626, 21.162276199999997], [78.9390167, 21.162012], [78.939249, 21.161633699999996], [78.9389207, 21.1616137], [78.938749, 21.1614216], [78.9382652, 21.160402100000002], [78.9387544, 21.1599928], [78.9403058, 21.1599328], [78.9410311, 21.160382], [78.94144200000001, 21.160261000000002], [78.9421512, 21.1605421], [78.942576, 21.160492099999995], [78.9432605, 21.1610054], [78.9455501, 21.161415599999998], [78.9449589, 21.160332], [78.94391180000001, 21.15922039999999], [78.9432337, 21.158891199999996], [78.9432133, 21.158510999999997], [78.9434665, 21.157864699999994], [78.9432305, 21.157654499999996], [78.9413486, 21.157733600000004], [78.94113940000001, 21.1574424], [78.9410525, 21.157010199999995], [78.9413497, 21.1563698], [78.9409173, 21.1557124], [78.9410504, 21.154710899999998], [78.9408798, 21.154428700000004], [78.9412328, 21.15375029999999], [78.9382598, 21.155189099999998], [78.9367116, 21.1552101], [78.9361499, 21.1559527], [78.9351715, 21.159834800000002]]]]}}, {"type": "Feature", "properties": {"id": "wb_futala_lake", "name": "Futala Lake", "district": "Nagpur", "kind": "lake", "tier": 3, "drinking_water": false, "urban": true, "source": "osm", "osm_id": "relation/9151319", "osm_name": "Futala Lake"}, "geometry": {"type": "MultiPolygon", "coordinates": [[[[79.0432065, 21.156988500000004], [79.043124, 21.157494299999996], [79.044696, 21.156193500000004], [79.0453469, 21.156051899999998], [79.0456125, 21.1561845], [79.04565270000002, 21.155171400000004], [79.044906, 21.150808799999997], [79.0429061, 21.151129000000005], [79.0412582, 21.1517694], [79.0402282, 21.152457799999997], [79.0363229, 21.1537546], [79.0359538, 21.154755199999997], [79.0362113, 21.1554196], [79.0376361, 21.155195399999997], [79.0381082, 21.156092000000005], [79.0399793, 21.15595589999999], [79.0405544, 21.15626], [79.0406831, 21.1569885], [79.0403312, 21.157988999999993], [79.0408462, 21.157909], [79.0416187, 21.1568204], [79.0421937, 21.1563641], [79.04299200000001, 21.156580199999993], [79.0432065, 21.156988500000004]]]]}}, {"type": "Feature", "properties": {"id": "wb_gaon_talaw", "name": "Gaon Talaw", "district": "Nagpur", "kind": "reservoir", "tier": 3, "drinking_water": false, "urban": false, "source": "osm", "osm_id": "way/184067367", "osm_name": "Gaon Talaw"}, "geometry": {"type": "MultiPolygon", "coordinates": [[[[79.314169, 20.8563637], [79.3148497, 20.85630799999999], [79.3173141, 20.8574688], [79.3194182, 20.857433799999992], [79.3195747, 20.8572794], [79.3199706, 20.8574925], [79.3204768, 20.857305799999995], [79.3212445, 20.855696999999996], [79.3210758, 20.854739999999996], [79.320057, 20.8536368], [79.3195405, 20.8541474], [79.3192647, 20.854160499999992], [79.3181123, 20.8534661], [79.3183319, 20.8529441], [79.3181141, 20.8524877], [79.3182968, 20.852270999999995], [79.3185076, 20.8509873], [79.3181949, 20.8499957], [79.3157642, 20.850356899999998], [79.3153426, 20.8529572], [79.3141049, 20.8544144], [79.3139749, 20.855163], [79.3140557, 20.8560659], [79.3139398, 20.856200500000003], [79.314169, 20.8563637]]]]}}, {"type": "Feature", "properties": {"id": "wb_karhandla_lake", "name": "Karhandla Lake", "district": "Nagpur", "kind": "lake", "tier": 3, "drinking_water": false, "urban": false, "source": "osm", "osm_id": "way/119685813", "osm_name": "Karhandla Lake"}, "geometry": {"type": "MultiPolygon", "coordinates": [[[[79.4193077, 20.8472618], [79.419651, 20.8475826], [79.4198227, 20.848384699999997], [79.420166, 20.848384699999997], [79.4203377, 20.847582600000006], [79.4222904, 20.847432199999997], [79.4236958, 20.8477029], [79.4254875, 20.848866], [79.4248009, 20.849828499999997], [79.4247248, 20.8507804], [79.4258308, 20.850790999999997], [79.4251656, 20.8518638], [79.4270432, 20.8518438], [79.4280186, 20.851111200000002], [79.4264844, 20.8508606], [79.4265175, 20.849828499999997], [79.4272042, 20.848545099999996], [79.427172, 20.847763099999998], [79.4266677, 20.847502400000003], [79.4251871, 20.847261699999997], [79.4259489, 20.846389500000004], [79.4253158, 20.8461488], [79.4251969, 20.8456168], [79.42580840000001, 20.845496399999995], [79.42494040000001, 20.8448855], [79.4244995, 20.845035199999998], [79.4246721, 20.846108800000003], [79.42336230000001, 20.8457271], [79.421592, 20.845666899999998], [79.42155, 20.845316700000005], [79.4205093, 20.845818], [79.419415, 20.844995799999996], [79.4184494, 20.8445346], [79.4178701, 20.8445045], [79.4170761, 20.845176300000002], [79.415778, 20.8452063], [79.4150913, 20.845797900000004], [79.4150699, 20.8474222], [79.4160461, 20.847742999999994], [79.4193077, 20.8472618]]]]}}, {"type": "Feature", "properties": {"id": "wb_pullar_lake", "name": "Pullar Lake", "district": "Nagpur", "kind": "lake", "tier": 3, "drinking_water": false, "urban": false, "source": "osm", "osm_id": "way/119685743", "osm_name": "Pullar Lake"}, "geometry": {"type": "MultiPolygon", "coordinates": [[[[79.5025742, 20.859483499999993], [79.5028425, 20.858430799999997], [79.5026708, 20.857769199999996], [79.5008791, 20.857568599999997], [79.4997525, 20.8578894], [79.4997203, 20.8610675], [79.4988406, 20.8623407], [79.4987762, 20.863433599999997], [79.4994951, 20.865198], [79.501276, 20.863473699999997], [79.5027245, 20.862330799999995], [79.50291760000002, 20.861578800000004], [79.5025742, 20.859483499999993]]]]}}, {"type": "Feature", "properties": {"id": "wb_thana_lake", "name": "Thana Lake", "district": "Nagpur", "kind": "lake", "tier": 3, "drinking_water": false, "urban": false, "source": "osm", "osm_id": "way/321130163", "osm_name": "Thana Lake"}, "geometry": {"type": "MultiPolygon", "coordinates": [[[[79.3944275, 20.826776299999995], [79.3927902, 20.8250139], [79.3922548, 20.8237447], [79.3927437, 20.821982399999996], [79.3925342, 20.82078569999999], [79.3928058, 20.8205318], [79.3932325, 20.820713099999995], [79.3937369, 20.821460199999997], [79.3946059, 20.822294199999998], [79.3951879, 20.8225916], [79.3955914, 20.824020299999994], [79.3960492, 20.824861599999995], [79.397376, 20.825985799999998], [79.3997737, 20.8269141], [79.3994711, 20.8272694], [79.3980434, 20.827813399999993], [79.3976787, 20.827806099999997], [79.3949706, 20.826819799999996], [79.3944275, 20.826776299999995]]]]}}, {"type": "Feature", "properties": {"id": "wb_bhivkund_dam", "name": "Bhivkund Dam", "district": "Nagpur", "kind": "reservoir", "tier": 3, "drinking_water": false, "urban": false, "source": "osm", "osm_id": "way/975418546", "osm_name": "Bhivkund Dam"}, "geometry": {"type": "MultiPolygon", "coordinates": [[[[78.8722062, 21.058822799999998], [78.8739658, 21.0555588], [78.8728929, 21.055078199999997], [78.8717556, 21.0551382], [78.8709617, 21.054817800000002], [78.87001750000002, 21.0551583], [78.8691163, 21.0550181], [78.868022, 21.054036799999995], [78.8659835, 21.053255899999996], [78.8652754, 21.052835299999998], [78.8641167, 21.052955499999996], [78.8640309, 21.053155700000005], [78.8653183, 21.053255900000003], [78.8664341, 21.0540969], [78.8669276, 21.0549981], [78.8668418, 21.055438599999988], [78.8669491, 21.0558191], [78.8678074, 21.056179499999985], [78.8686443, 21.056900400000004], [78.868773, 21.057381000000003], [78.8694382, 21.057280899999995], [78.8702321, 21.057481100000004], [78.8708758, 21.0583422], [78.8707686, 21.058742700000003], [78.8722062, 21.058822799999998]]]]}}, {"type": "Feature", "properties": {"id": "wb_gandhi_sagar", "name": "Gandhi Sagar", "district": "Nagpur", "kind": "reservoir", "tier": 3, "drinking_water": false, "urban": false, "source": "osm", "osm_id": "way/27058684", "osm_name": "Gandhi Sagar"}, "geometry": {"type": "MultiPolygon", "coordinates": [[[[79.0958845, 21.1449951], [79.0964282, 21.148049699999998], [79.1015952, 21.1473212], [79.1012776, 21.1449592], [79.1008537, 21.144604099999995], [79.099862, 21.1444627], [79.0958845, 21.1449951]]]]}}, {"type": "Feature", "properties": {"id": "wb_sonegaon_lake", "name": "Sonegaon Lake", "district": "Nagpur", "kind": "lake", "tier": 3, "drinking_water": false, "urban": true, "source": "osm", "osm_id": "way/246262221", "osm_name": "Sonegaon Lake"}, "geometry": {"type": "MultiPolygon", "coordinates": [[[[79.0507935, 21.1025933], [79.0529178, 21.101987699999995], [79.0528588, 21.101517300000005], [79.0540122, 21.101267], [79.0543555, 21.1010518], [79.0544735, 21.100751499999998], [79.0543394, 21.100736499999996], [79.0542697, 21.0999608], [79.0543984, 21.099905700000004], [79.0538942, 21.0984708], [79.0529983, 21.098469399999995], [79.0526446, 21.0982823], [79.0509726, 21.0981121], [79.0503, 21.0994503], [79.0497362, 21.099563799999995], [79.0498405, 21.0999655], [79.0505425, 21.100284499999997], [79.0502104, 21.100403899999993], [79.0507935, 21.1025933]]]]}}]}